{
  "norad_id": 59370,
  "name": "STARLINK-31461",
  "history": [
    {
      "epoch": "2026-03-28T14:56:41.560800Z",
      "apogee_km": 483.9829014767147,
      "perigee_km": 482.16029002533924,
      "latitude_deg": 5.0384349868583065e-06,
      "longitude_deg": 91.87913522445444,
      "height_km": 482.77300717195,
      "semi_major_axis_km": 6861.208595751027,
      "eccentricity": 0.00013282,
      "inclination_deg": 43.0017,
      "raan_deg": 142.0928,
      "arg_perigee_deg": 274.7477,
      "mean_anomaly_deg": 85.3223,
      "mean_motion_rev_day": 15.27572486
    }
  ]
}